[{"OBJECT_NAME":"ONEWEB-0011","OBJECT_ID":"2019-010F","EPOCH":"2026-03-09T19:52:46.373664","MEAN_MOTION":13.15547694,"ECCENTRICITY":0.00019227,"INCLINATION":87.8948,"RA_OF_ASC_NODE":279.024,"ARG_OF_PERICENTER":90.4222,"MEAN_ANOMALY":269.7129,"EPHEMERIS_TYPE":0,"CLASSIFICATION_TYPE":"U","NORAD_CAT_ID":44062,"ELEMENT_SET_NO":999,"REV_AT_EPOCH":33835,"BSTAR":-0.00024444936,"MEAN_MOTION_DOT":-7.9e-7,"MEAN_MOTION_DDOT":0},{"OBJECT_NAME":"DELTA 1 DEB","OBJECT_ID":"1975-052JS","EPOCH":"2026-03-07T13:43:36.434208","MEAN_MOTION":12.13856023,"ECCENTRICITY":0.0630826,"INCLINATION":99.4566,"RA_OF_ASC_NODE":109.4924,"ARG_OF_PERICENTER":288.3321,"MEAN_ANOMALY":242.6667,"EPHEMERIS_TYPE":0,"CLASSIFICATION_TYPE":"U","NORAD_CAT_ID":21914,"ELEMENT_SET_NO":999,"REV_AT_EPOCH":51409,"BSTAR":0.00066208,"MEAN_MOTION_DOT":8.5e-7,"MEAN_MOTION_DDOT":0}]
